{"type": "FeatureCollection", "features": [ {"type": "Feature", "properties": {"norad_id": 44506, "name": "GPS BIII-2  (PRN 18)", "group": "gnss", "lat": -25.13940674986851, "lon": 177.28014137025423, "alt_km": 20035.68614721283, "timestamp": "2025-12-10T23:33:13.064309+00:00", "meta": {"OBJECT_NAME": "GPS BIII-2  (PRN 18)", "OBJECT_ID": "2019-056A", "EPOCH": "2025-12-10T10:16:28.629696", "MEAN_MOTION": 2.00566128, "ECCENTRICITY": 0.00577597, "INCLINATION": 55.7221, "RA_OF_ASC_NODE": 338.6437, "ARG_OF_PERICENTER": 198.4903, "MEAN_ANOMALY": 332.7667, "EPHEMERIS_TYPE": 0, "CLASSIFICATION_TYPE": "U", "NORAD_CAT_ID": 44506, "ELEMENT_SET_NO": 999, "REV_AT_EPOCH": 4628, "BSTAR": 0, "MEAN_MOTION_DOT": -8.6e-07, "MEAN_MOTION_DDOT": 0}, "tle": {"line1": "1 44506U 19056A   25344.42810914 -.00000086  00000+0  00000+0 0  9990", "line2": "2 44506  55.7221 338.6437 0057759 198.4903 332.7667  2.00566128 46288"}}, "geometry": {"type": "Point", "coordinates": [177.28014137025423, -25.13940674986851]}}, {"type": "Feature", "properties": {"norad_id": 44542, "name": "BEIDOU-3 M24 (C46)", "group": "gnss", "lat": 30.69424464151615, "lon": -16.08975305289827, "alt_km": 21536.259105498575, "timestamp": "2025-12-10T23:33:13.064319+00:00", "meta": {"OBJECT_NAME": "BEIDOU-3 M24 (C46)", "OBJECT_ID": "2019-061A", "EPOCH": "2025-12-10T05:37:21.080064", "MEAN_MOTION": 1.86229306, "ECCENTRICITY": 0.0009591, "INCLINATION": 54.4003, "RA_OF_ASC_NODE": 189.1006, "ARG_OF_PERICENTER": 24.8037, "MEAN_ANOMALY": 335.3012, "EPHEMERIS_TYPE": 0, "CLASSIFICATION_TYPE": "U", "NORAD_CAT_ID": 44542, "ELEMENT_SET_NO": 999, "REV_AT_EPOCH": 4227, "BSTAR": 0, "MEAN_MOTION_DOT": 5.4e-07, "MEAN_MOTION_DDOT": 0}, "tle": {"line1": "1 44542U 19061A   25344.23427176  .00000054  00000+0  00000+0 0  9993", "line2": "2 44542  54.4003 189.1006 0009591  24.8037 335.3012  1.86229306 42279"}}, "geometry": {"type": "Point", "coordinates": [-16.08975305289827, 30.69424464151615]}}, {"type": "Feature", "properties": {"norad_id": 44543, "name": "BEIDOU-3 M23 (C45)", "group": "gnss", "lat": 40.97725095373273, "lon": -132.46049318367156, "alt_km": 21508.77979061851, "timestamp": "2025-12-10T23:33:13.064328+00:00", "meta": {"OBJECT_NAME": "BEIDOU-3 M23 (C45)", "OBJECT_ID": "2019-061B", "EPOCH": "2025-12-08T18:00:07.463232", "MEAN_MOTION": 1.8622754, "ECCENTRICITY": 0.00060873, "INCLINATION": 54.3989, "RA_OF_ASC_NODE": 189.119, "ARG_OF_PERICENTER": 23.0878, "MEAN_ANOMALY": 334.736, "EPHEMERIS_TYPE": 0, "CLASSIFICATION_TYPE": "U", "NORAD_CAT_ID": 44543, "ELEMENT_SET_NO": 999, "REV_AT_EPOCH": 4224, "BSTAR": 0, "MEAN_MOTION_DOT": 5e-07, "MEAN_MOTION_DDOT": 0}, "tle": {"line1": "1 44543U 19061B   25342.75008638  .00000050  00000+0  00000+0 0  9993", "line2": "2 44543  54.3989 189.1190 0006087  23.0878 334.7360  1.86227540 42241"}}, "geometry": {"type": "Point", "coordinates": [-132.46049318367156, 40.97725095373273]}}, {"type": "Feature", "properties": {"norad_id": 44624, "name": "EUTELSAT 5 WEST B (EGNOS/PRN 121)", "group": "gnss", "lat": 0.08167315602223563, "lon": 68.25665496538168, "alt_km": 35800.545450764424, "timestamp": "2025-12-10T23:33:13.064339+00:00", "meta": {"OBJECT_NAME": "EUTELSAT 5 WEST B (EGNOS/PRN 121)", "OBJECT_ID": "2019-067A", "EPOCH": "2025-12-10T06:29:38.861952", "MEAN_MOTION": 1.00271337, "ECCENTRICITY": 0.00034665, "INCLINATION": 0.0636, "RA_OF_ASC_NODE": 343.945, "ARG_OF_PERICENTER": 276.083, "MEAN_ANOMALY": 271.632, "EPHEMERIS_TYPE": 0, "CLASSIFICATION_TYPE": "U", "NORAD_CAT_ID": 44624, "ELEMENT_SET_NO": 999, "REV_AT_EPOCH": 2254, "BSTAR": 0, "MEAN_MOTION_DOT": -3.9e-07, "MEAN_MOTION_DDOT": 0}, "tle": {"line1": "1 44624U 19067A   25344.27058868 -.00000039  00000+0  00000+0 0  9996", "line2": "2 44624   0.0636 343.9450 0003466 276.0830 271.6320  1.00271337 22548"}}, "geometry": {"type": "Point", "coordinates": [68.25665496538168, 0.08167315602223563]}}, {"type": "Feature", "properties": {"norad_id": 44709, "name": "BEIDOU-3 IGSO-3 (C40)", "group": "gnss", "lat": -54.75607663319048, "lon": -176.98296420231333, "alt_km": 35743.72179272314, "timestamp": "2025-12-10T23:33:13.064349+00:00", "meta": {"OBJECT_NAME": "BEIDOU-3 IGSO-3 (C40)", "OBJECT_ID": "2019-073A", "EPOCH": "2025-11-20T07:11:22.740000", "MEAN_MOTION": 1.00250097, "ECCENTRICITY": 0.0044538, "INCLINATION": 55.163, "RA_OF_ASC_NODE": 283.159, "ARG_OF_PERICENTER": 191.5856, "MEAN_ANOMALY": 168.2409, "EPHEMERIS_TYPE": 0, "CLASSIFICATION_TYPE": "U", "NORAD_CAT_ID": 44709, "ELEMENT_SET_NO": 999, "REV_AT_EPOCH": 2236, "BSTAR": 0, "MEAN_MOTION_DOT": -2.06e-06, "MEAN_MOTION_DDOT": 0}, "tle": {"line1": "1 44709U 19073A   25324.29956875 -.00000206  00000+0  00000+0 0  9998", "line2": "2 44709  55.1630 283.1590 0044538 191.5856 168.2409  1.00250097 22360"}}, "geometry": {"type": "Point", "coordinates": [-176.98296420231333, -54.75607663319048]}}, {"type": "Feature", "properties": {"norad_id": 44793, "name": "BEIDOU-3 M22 (C44)", "group": "gnss", "lat": -48.75561588244954, "lon": -177.95856754574265, "alt_km": 21544.60622487202, "timestamp": "2025-12-10T23:33:13.064362+00:00", "meta": {"OBJECT_NAME": "BEIDOU-3 M22 (C44)", "OBJECT_ID": "2019-078A", "EPOCH": "2025-12-10T01:47:05.181792", "MEAN_MOTION": 1.86231719, "ECCENTRICITY": 0.0005679, "INCLINATION": 54.1107, "RA_OF_ASC_NODE": 306.4794, "ARG_OF_PERICENTER": 23.2059, "MEAN_ANOMALY": 336.8105, "EPHEMERIS_TYPE": 0, "CLASSIFICATION_TYPE": "U", "NORAD_CAT_ID": 44793, "ELEMENT_SET_NO": 999, "REV_AT_EPOCH": 4112, "BSTAR": 0, "MEAN_MOTION_DOT": -8e-07, "MEAN_MOTION_DDOT": 0}, "tle": {"line1": "1 44793U 19078A   25344.07436553 -.00000080  00000+0  00000+0 0  9990", "line2": "2 44793  54.1107 306.4794 0005679  23.2059 336.8105  1.86231719 41120"}}, "geometry": {"type": "Point", "coordinates": [-177.95856754574265, -48.75561588244954]}}, {"type": "Feature", "properties": {"norad_id": 44794, "name": "BEIDOU-3 M21 (C43)", "group": "gnss", "lat": 19.288040748618283, "lon": 111.71261330346272, "alt_km": 21534.99225082468, "timestamp": "2025-12-10T23:33:13.064377+00:00", "meta": {"OBJECT_NAME": "BEIDOU-3 M21 (C43)", "OBJECT_ID": "2019-078B", "EPOCH": "2025-12-09T03:18:47.736000", "MEAN_MOTION": 1.86227438, "ECCENTRICITY": 0.00038519, "INCLINATION": 54.0853, "RA_OF_ASC_NODE": 306.4778, "ARG_OF_PERICENTER": 10.0441, "MEAN_ANOMALY": 349.953, "EPHEMERIS_TYPE": 0, "CLASSIFICATION_TYPE": "U", "NORAD_CAT_ID": 44794, "ELEMENT_SET_NO": 999, "REV_AT_EPOCH": 4111, "BSTAR": 0, "MEAN_MOTION_DOT": -7.6e-07, "MEAN_MOTION_DDOT": 0}, "tle": {"line1": "1 44794U 19078B   25343.13805250 -.00000076  00000+0  00000+0 0  9996", "line2": "2 44794  54.0853 306.4778 0003851  10.0441 349.9530  1.86227438 41118"}}, "geometry": {"type": "Point", "coordinates": [111.71261330346272, 19.288040748618283]}}, {"type": "Feature", "properties": {"norad_id": 44850, "name": "COSMOS 2544 (759)", "group": "gnss", "lat": 64.70161603089413, "lon": -174.81486799067633, "alt_km": 19153.915689450245, "timestamp": "2025-12-10T23:33:13.064387+00:00", "meta": {"OBJECT_NAME": "COSMOS 2544 (759)", "OBJECT_ID": "2019-088A", "EPOCH": "2025-12-09T10:44:40.843680", "MEAN_MOTION": 2.13101756, "ECCENTRICITY": 0.0013649, "INCLINATION": 65.4583, "RA_OF_ASC_NODE": 80.0686, "ARG_OF_PERICENTER": 249.1242, "MEAN_ANOMALY": 110.7462, "EPHEMERIS_TYPE": 0, "CLASSIFICATION_TYPE": "U", "NORAD_CAT_ID": 44850, "ELEMENT_SET_NO": 999, "REV_AT_EPOCH": 4667, "BSTAR": 0, "MEAN_MOTION_DOT": -1.3e-07, "MEAN_MOTION_DDOT": 0}, "tle": {"line1": "1 44850U 19088A   25343.44769495 -.00000013  00000+0  00000+0 0  9995", "line2": "2 44850  65.4583  80.0686 0013649 249.1242 110.7462  2.13101756 46679"}}, "geometry": {"type": "Point", "coordinates": [-174.81486799067633, 64.70161603089413]}}, {"type": "Feature", "properties": {"norad_id": 44864, "name": "BEIDOU-3 M19 (C41)", "group": "gnss", "lat": -6.8584438457976455, "lon": 64.44543709782684, "alt_km": 21509.346762469053, "timestamp": "2025-12-10T23:33:13.064397+00:00", "meta": {"OBJECT_NAME": "BEIDOU-3 M19 (C41)", "OBJECT_ID": "2019-090A", "EPOCH": "2025-12-10T11:02:30.931872", "MEAN_MOTION": 1.86231164, "ECCENTRICITY": 0.00178827, "INCLINATION": 56.3915, "RA_OF_ASC_NODE": 69.0363, "ARG_OF_PERICENTER": 285.2259, "MEAN_ANOMALY": 76.8475, "EPHEMERIS_TYPE": 0, "CLASSIFICATION_TYPE": "U", "NORAD_CAT_ID": 44864, "ELEMENT_SET_NO": 999, "REV_AT_EPOCH": 4072, "BSTAR": 0, "MEAN_MOTION_DOT": -5.5e-07, "MEAN_MOTION_DDOT": 0}, "tle": {"line1": "1 44864U 19090A   25344.46008023 -.00000055  00000+0  00000+0 0  9995", "line2": "2 44864  56.3915  69.0363 0017882 285.2259  76.8475  1.86231164 40725"}}, "geometry": {"type": "Point", "coordinates": [64.44543709782684, -6.8584438457976455]}}, {"type": "Feature", "properties": {"norad_id": 44865, "name": "BEIDOU-3 M20 (C42)", "group": "gnss", "lat": 55.43424763780837, "lon": 143.61689985617141, "alt_km": 21554.881856935954, "timestamp": "2025-12-10T23:33:13.064406+00:00", "meta": {"OBJECT_NAME": "BEIDOU-3 M20 (C42)", "OBJECT_ID": "2019-090B", "EPOCH": "2025-12-10T07:52:57.068256", "MEAN_MOTION": 1.86231297, "ECCENTRICITY": 0.00148891, "INCLINATION": 56.3932, "RA_OF_ASC_NODE": 69.0753, "ARG_OF_PERICENTER": 298.008, "MEAN_ANOMALY": 65.4218, "EPHEMERIS_TYPE": 0, "CLASSIFICATION_TYPE": "U", "NORAD_CAT_ID": 44865, "ELEMENT_SET_NO": 999, "REV_AT_EPOCH": 4070, "BSTAR": 0, "MEAN_MOTION_DOT": -5.4e-07, "MEAN_MOTION_DDOT": 0}, "tle": {"line1": "1 44865U 19090B   25344.32843829 -.00000054  00000+0  00000+0 0  9991", "line2": "2 44865  56.3932  69.0753 0014889 298.0080  65.4218  1.86231297 40700"}}, "geometry": {"type": "Point", "coordinates": [143.61689985617141, 55.43424763780837]}}]}